[{"OBJECT_NAME":"STARLINK-2720","OBJECT_ID":"2021-044R","EPOCH":"2026-03-09T19:39:02.293920","MEAN_MOTION":15.30186761,"ECCENTRICITY":0.00013368,"INCLINATION":53.1589,"RA_OF_ASC_NODE":113.2604,"ARG_OF_PERICENTER":89.4472,"MEAN_ANOMALY":270.6682,"EPHEMERIS_TYPE":0,"CLASSIFICATION_TYPE":"U","NORAD_CAT_ID":48653,"ELEMENT_SET_NO":999,"REV_AT_EPOCH":26384,"BSTAR":3.62317e-6,"MEAN_MOTION_DOT":-2.52e-6,"MEAN_MOTION_DDOT":0},{"OBJECT_NAME":"TOMORROW-S2","OBJECT_ID":"2024-149T","EPOCH":"2026-03-09T18:02:42.746496","MEAN_MOTION":15.30674935,"ECCENTRICITY":0.0001648,"INCLINATION":97.3857,"RA_OF_ASC_NODE":150.0385,"ARG_OF_PERICENTER":234.3331,"MEAN_ANOMALY":125.7757,"EPHEMERIS_TYPE":0,"CLASSIFICATION_TYPE":"U","NORAD_CAT_ID":60485,"ELEMENT_SET_NO":999,"REV_AT_EPOCH":8686,"BSTAR":0.00027683033,"MEAN_MOTION_DOT":8.133e-5,"MEAN_MOTION_DDOT":0}]
